satname,norad_id,inclination_deg,eccentricity,mean_motion_rev_per_day,perigee_km,apogee_km,l1,l2
STARLINK-1143,45179,53.0473,0.0004916,15.57819125,390.64097378932274,397.2993095310021,1 45179U 20012B   26051.40088557  .00111311  00000+0  14543-2 0  9998,2 45179  53.0473  54.1772 0004916  18.8694 341.2499 15.57819125333221
STARLINK-1202,45183,53.1603,0.0001373,15.30196158,474.28557414862644,476.16750777697507,1 45183U 20012F   26051.44540982  .00001198  00000+0  52574-4 0  9991,2 45183  53.1603 119.3505 0001373  79.5901 280.5255 15.30196158332318
STARLINK-1216,45185,53.1605,0.000135,15.30188993,474.3227275681411,476.17314150046604,1 45185U 20012H   26051.69718730  .00001563  00000+0  64918-4 0  9999,2 45185  53.1605 118.1581 0001350 102.6958 257.4194 15.30188993332298
STARLINK-1225,45187,53.1603,0.0001629,15.30193239,474.1188422803716,476.35167096157875,1 45187U 20012K   26051.43283698  .00001294  00000+0  55828-4 0  9994,2 45187  53.1603 119.8289 0001629  61.4247 298.6917 15.30193239332292
STARLINK-1230,45189,53.1608,0.000135,15.30190206,474.3191062167052,476.1695191711324,1 45189U 20012M   26051.50763913  .00000534  00000+0  30174-4 0  9990,2 45189  53.1608 119.5396 0001350  90.0099 270.1056 15.30190206329532
STARLINK-1234,45190,53.045,0.0005228,15.58055155,389.74608602435,396.826286107701,1 45190U 20012N   26051.41899249  .00085192  00000+0  11083-2 0  9993,2 45190  53.0450  49.4477 0005228 272.3859  87.6554 15.58055155333189
STARLINK-1269,45197,53.1594,0.000162,15.30173465,474.1840434208034,476.4045551617737,1 45197U 20012V   26051.70040821  .00004296  00000+0  15721-3 0  9996,2 45197  53.1594 118.5013 0001620 112.2701 247.8472 15.30173465332318
STARLINK-1154,45198,53.0491,0.0006633,15.43226566,432.07373545377686,441.1141575273914,1 45198U 20012W   26051.40865843  .00085646  00000+0  18857-2 0  9993,2 45198  53.0491  92.2458 0006633  22.0333 338.0956 15.43226566332622
STARLINK-1199,45201,53.1156,0.0001176,15.20788184,502.65261074545015,504.2711628036195,1 45201U 20012Z   26051.91668981  .01385983  00000+0  57060-1 0  9994,2 45201  53.1156 101.5119 0001176  63.7999 346.4603 15.20788184  5781
STARLINK-1209,45206,53.0479,0.0006714,15.47713418,418.8503175615051,427.9834441126932,1 45206U 20012AE  26051.32212807  .00064080  00000+0  12157-2 0  9996,2 45206  53.0479  56.6965 0006714 239.1372 120.8975 15.47713418332224
STARLINK-1210,45207,53.0102,0.0004498,16.04674094,258.50754148343003,264.4805535737869,1 45207U 20012AF  26051.76568667  .00583845  17306-3  84763-3 0  9992,2 45207  53.0102 346.8968 0004498 130.5573 229.5850 16.04674094334185
STARLINK-1231,45212,53.0471,0.0003798,15.19534952,504.6300177612693,509.8601539937017,1 45212U 20012AL  26051.58703279  .00033914  00000+0  15835-2 0  9997,2 45212  53.0471  94.2321 0003798  15.1150 344.9957 15.19534952332628
STARLINK-1271,45217,53.1078,0.0001237,15.19020906,507.94645475245034,509.6502825626558,1 45217U 20012AR  26051.91668981  .01444849  00000+0  62371-1 0  9999,2 45217  53.1078 101.6147 0001237  65.4815   8.0673 15.19020906  5841
STARLINK-1191,45222,53.1586,0.0001245,15.31054287,471.8125836248382,473.5184334494643,1 45222U 20012AW  26051.55939663  .00006324  00000+0  21968-3 0  9993,2 45222  53.1586  78.4198 0001245  95.0472 265.0672 15.31054287332890
STARLINK-1212,45223,53.0521,0.0005368,15.44982308,427.77468148289154,435.0854326753715,1 45223U 20012AX  26051.69623645  .00073039  00000+0  15195-2 0  9990,2 45223  53.0521  71.5880 0005368  44.5704 315.5733 15.44982308333009
STARLINK-1215,45225,53.1604,0.0001353,15.30197054,474.296605933293,476.1511253835388,1 45225U 20012AZ  26051.34728256  .00001729  00000+0  70513-4 0  9992,2 45225  53.1604  78.8585 0001353  80.3534 279.7619 15.30197054332829
STARLINK-1221,45227,53.0685,0.0002663,15.41231332,440.6577866686821,444.2904441487499,1 45227U 20012BB  26051.21240149  .00014682  00000+0  35695-3 0  9993,2 45227  53.0685 352.3886 0002663   7.8930 352.2116 15.41231332334014
STARLINK-1222,45228,53.0555,0.0003564,15.48430351,418.8939517814688,423.740602790318,1 45228U 20012BC  26051.45762205  .00019249  00000+0  36421-3 0  9994,2 45228  53.0555  65.3568 0003564  36.8300 323.2952 15.48430351332959
STARLINK-1226,45229,53.161,0.0001452,15.31030528,471.7416367709784,473.73113040157205,1 45229U 20012BD  26051.51073674  .00000290  00000+0  21464-4 0  9995,2 45229  53.1610  78.4467 0001452  82.8198 277.2968 15.31030528332786
STARLINK-1227,45230,53.1609,0.0001235,15.31026064,471.903615762134,473.59578477710056,1 45230U 20012BE  26051.34256240  .00002664  00000+0  99559-4 0  9997,2 45230  53.1609  79.5444 0001235  84.1146 275.9996 15.31026064332876
STARLINK-1246,45235,53.1594,0.0001264,15.30193101,474.36940236184546,476.10193497248474,1 45235U 20012BK  26051.44857247  .00002251  00000+0  88129-4 0  9990,2 45235  53.1594 119.3315 0001264  86.4764 273.6382 15.30193101332338
STARLINK-1270,45237,53.0504,0.0004081,15.4395091,431.6821389908155,437.2425825890923,1 45237U 20012BM  26051.44434617  .00057543  00000+0  12444-2 0  9993,2 45237  53.0504  69.7348 0004081   9.1509 350.9570 15.43950910333009
STARLINK-1279,45360,53.0438,0.000352,15.53993789,402.69144661313203,407.46683077477246,1 45360U 20019A   26051.91668981  .00078091  00000+0  11824-2 0  9994,2 45360  53.0438 179.8729 0003520 150.1835 138.1336 15.53993789  5851
STARLINK-1301,45361,53.0436,0.0005413,15.60848656,381.54342166577317,388.8654150853072,1 45361U 20019B   26051.91668981  .00119580  00000+0  13908-2 0  9999,2 45361  53.0436 186.1597 0005413 152.1118 258.4613 15.60848656  5925
STARLINK-1262,45366,53.0715,0.0001824,15.10918533,532.1367656796019,534.6580934395042,1 45366U 20019G   26051.91668981  .00068455  00000+0  40401-2 0  9996,2 45366  53.0715 241.8644 0001824  62.3446  22.4709 15.10918533  5685
STARLINK-1273,45367,53.0522,8.73e-05,15.42425237,438.3588937407394,439.5491578338406,1 45367U 20019H   26051.76179491  .00067546  00000+0  15342-2 0  9999,2 45367  53.0522 235.2216 0000873 151.0521 209.0532 15.42425237327286
STARLINK-1276,45368,53.0551,0.0001312,15.06395147,546.3178240420066,548.1350394064912,1 45368U 20019J   26051.76622654  .00001132  00000+0  94888-4 0  9997,2 45368  53.0551 242.5899 0001312  91.3769 268.7370 15.06395147327183
STARLINK-1277,45369,53.0523,0.0001139,15.45839786,428.13632150782905,429.68696718901083,1 45369U 20019K   26051.77053404  .00074305  00000+0  15014-2 0  9994,2 45369  53.0523 233.4547 0001139 184.3804 175.7193 15.45839786327312
STARLINK-1281,45370,53.055,0.000183,15.06404541,545.9303042230576,548.464976701468,1 45370U 20019L   26051.68881152  .00000959  00000+0  83242-4 0  9999,2 45370  53.0550 242.9364 0001830 116.3757 243.7420 15.06404541327173
STARLINK-1300,45374,53.0545,0.0001295,15.06395894,546.3273079975661,548.1209765334124,1 45374U 20019Q   26051.77727491  .00000943  00000+0  82217-4 0  9992,2 45374  53.0545 242.5401 0001295  95.5277 264.5860 15.06395894327189
STARLINK-1302,45375,53.0531,0.0004057,15.47065764,422.55482811919956,428.07514906274173,1 45375U 20019R   26051.73838654  .00058482  00000+0  11368-2 0  9991,2 45375  53.0531 232.9887 0004057 187.7347 172.3598 15.47065764327311
STARLINK-1304,45376,53.0514,0.0003524,15.45189689,428.4212888621878,433.2202422953678,1 45376U 20019S   26051.77971727  .00078109  00000+0  16123-2 0  9997,2 45376  53.0514 230.2295 0003524 169.1766 190.9316 15.45189689327353
STARLINK-1305,45377,53.0471,0.000481,15.49508128,414.8949353274338,421.4329768471898,1 45377U 20019T   26051.76528037  .00086173  00000+0  15290-2 0  9993,2 45377  53.0471 213.6261 0004810 110.1420 250.0105 15.49508128327593
STARLINK-1319,45379,53.0481,0.0003955,15.55546281,397.8841459756277,403.2460993546556,1 45379U 20019V   26051.69488169  .00099163  00000+0  14129-2 0  9991,2 45379  53.0481 212.5172 0003955 128.9009 231.2354 15.55546281327602
STARLINK-1266,45383,53.0525,0.0001178,15.43095842,436.17599557333324,437.7816368596332,1 45383U 20019Z   26051.76487912  .00128044  00000+0  28132-2 0  9999,2 45383  53.0525 213.4516 0001178 305.6988  54.3907 15.43095842327587
STARLINK-1267,45384,53.0532,0.0006123,15.46632791,422.4181291182731,430.75119126334266,1 45384U 20019AA  26051.70564445  .00085996  00000+0  16862-2 0  9996,2 45384  53.0532 208.2659 0006123 179.5929 180.5084 15.46632791327653
STARLINK-1272,45386,53.0465,0.0003957,15.52804875,405.8556141654153,411.2265912158855,1 45386U 20019AC  26051.69568977  .00089919  00000+0  14180-2 0  9990,2 45386  53.0465 191.8974 0003957 134.4072 225.7262 15.52804875327884
STARLINK-1274,45387,53.0293,0.0006413,15.45034443,426.9099929692902,435.6437471990603,1 45387U 20019AD  26051.65371251  .00096125  00000+0  19871-2 0  9993,2 45387  53.0293 184.2054 0006413 174.1301 185.9781 15.45034443327987
STARLINK-1280,45388,53.0457,0.0004206,15.62030065,378.9505529227745,384.6370066947502,1 45388U 20019AE  26051.65304248  .00114221  00000+0  12707-2 0  9995,2 45388  53.0457 205.9804 0004206 132.6657 227.4711 15.62030065327671
STARLINK-1283,45389,53.045,0.0007711,15.52606471,403.88560637033515,414.3529129740009,1 45389U 20019AF  26051.91668981  .00101930  00000+0  16142-2 0  9992,2 45389  53.0450 191.0262 0007711 172.3755  60.7159 15.52606471  5892
STARLINK-1284,45390,53.0507,9.12e-05,15.48576955,420.2680625550429,421.50820473941985,1 45390U 20019AG  26051.65717133  .00079562  00000+0  14609-2 0  9990,2 45390  53.0507 212.7326 0000912 200.5605 159.5366 15.48576955327581
STARLINK-1297,45395,53.0501,6.47e-05,15.50650746,414.38541037106006,415.2644196428628,1 45395U 20019AM  26051.82114779  .00078094  00000+0  13334-2 0  9994,2 45395  53.0501 211.9278 0000647 257.7721 102.3214 15.50650746326799
STARLINK-1307,45397,53.0557,8.7e-05,15.48944321,419.2216445511549,420.4044878626737,1 45397U 20019AP  26051.71933197  .00024672  00000+0  45598-3 0  9998,2 45397  53.0557 212.1055 0000870  76.2134 283.8970 15.48944321327425
